[{"OBJECT_NAME":"STARLINK-31286","OBJECT_ID":"2024-041J","EPOCH":"2026-03-09T00:48:25.216416","MEAN_MOTION":15.27572218,"ECCENTRICITY":0.00018568,"INCLINATION":43.0104,"RA_OF_ASC_NODE":314.1952,"ARG_OF_PERICENTER":259.8906,"MEAN_ANOMALY":100.1736,"EPHEMERIS_TYPE":0,"CLASSIFICATION_TYPE":"U","NORAD_CAT_ID":59082,"ELEMENT_SET_NO":999,"REV_AT_EPOCH":11425,"BSTAR":-8.1247627e-5,"MEAN_MOTION_DOT":-2.497e-5,"MEAN_MOTION_DDOT":0},{"OBJECT_NAME":"NUSAT-50 (NANCY ROMAN)","OBJECT_ID":"2024-149AB","EPOCH":"2026-03-09T19:15:16.765632","MEAN_MOTION":15.29713355,"ECCENTRICITY":0.00025229,"INCLINATION":97.3817,"RA_OF_ASC_NODE":150.7693,"ARG_OF_PERICENTER":238.0469,"MEAN_ANOMALY":122.0527,"EPHEMERIS_TYPE":0,"CLASSIFICATION_TYPE":"U","NORAD_CAT_ID":60493,"ELEMENT_SET_NO":999,"REV_AT_EPOCH":8693,"BSTAR":0.0004225155,"MEAN_MOTION_DOT":0.00012094,"MEAN_MOTION_DDOT":0}]
