STARLINK-31286          
1 59082U 24041J   26068.03362519 -.00002497  00000+0 -81248-4 0  9996
2 59082  43.0104 314.1952 0001856 259.8906 100.1736 15.27572218114253
NUSAT-50 (NANCY ROMAN)  
1 60493U 24149AB  26068.80227738  .00012094  00000+0  42252-3 0  9994
2 60493  97.3817 150.7693 0002523 238.0469 122.0527 15.29713355 86930
